[{"OBJECT_NAME":"ONEWEB-0266","OBJECT_ID":"2021-060T","EPOCH":"2026-03-09T21:03:49.611456","MEAN_MOTION":13.16595868,"ECCENTRICITY":0.00016314,"INCLINATION":87.9006,"RA_OF_ASC_NODE":248.5264,"ARG_OF_PERICENTER":91.3621,"MEAN_ANOMALY":268.7697,"EPHEMERIS_TYPE":0,"CLASSIFICATION_TYPE":"U","NORAD_CAT_ID":48984,"ELEMENT_SET_NO":999,"REV_AT_EPOCH":22651,"BSTAR":-5.6105331e-5,"MEAN_MOTION_DOT":-9.0e-8,"MEAN_MOTION_DDOT":0},{"OBJECT_NAME":"COSMOS 839 DEB","OBJECT_ID":"1976-067BA","EPOCH":"2026-03-09T07:33:11.208384","MEAN_MOTION":12.44440064,"ECCENTRICITY":0.06260197,"INCLINATION":66.0305,"RA_OF_ASC_NODE":31.6655,"ARG_OF_PERICENTER":118.0534,"MEAN_ANOMALY":3.6216,"EPHEMERIS_TYPE":0,"CLASSIFICATION_TYPE":"U","NORAD_CAT_ID":12543,"ELEMENT_SET_NO":999,"REV_AT_EPOCH":24545,"BSTAR":0.0031554218,"MEAN_MOTION_DOT":8.41e-6,"MEAN_MOTION_DDOT":0}]
